UNKNOWN                 
1 89490U          22314.33620998  .00010715  00000+0  47741-2 0  9990
2 89490  98.4055 275.0007 0126048 305.6546  53.2947 14.18808915319552
UNKNOWN                 
1 89492U          22312.56074761  .00001253  00000+0  91495-3 0  9999
2 89492  82.5302 257.1176 0028175 337.3284  22.6636 13.95154796409521
UNKNOWN                 
1 89493U          22313.89623518  .00002567  00000+0  14980-2 0  9999
2 89493  99.1081 355.3820 0090411 332.8189  26.8262 14.07348045304704
UNKNOWN                 
1 89494U          22314.05719212  .00002470  00000+0  14423-2 0  9991
2 89494  99.1082 355.5292 0090977 332.3543  27.2804 14.07322031304587
